{
  "type": "FeatureCollection",
  "features": [
    {
      "type": "Feature",
      "properties": {
        "norad_id": 41599,
        "name": "CARTOSAT-2C",
        "group": "resource",
        "lat": -14.893376193187892,
        "lon": 58.82035824707907,
        "alt_km": 507.08686394562756,
        "timestamp": "2025-12-25T16:53:14.311254+00:00",
        "meta_object_name": "CARTOSAT-2C",
        "meta_object_id": "2016-040A",
        "meta_epoch": "2025-12-25T05:53:16.436832",
        "meta_mean_motion": 15.19228696,
        "meta_eccentricity": 0.00106198,
        "meta_inclination": 97.4743,
        "meta_ra_of_asc_node": 56.3659,
        "meta_arg_of_pericenter": 23.4032,
        "meta_mean_anomaly": 336.7684,
        "meta_ephemeris_type": 0,
        "meta_classification_type": "U",
        "meta_norad_cat_id": 41599,
        "meta_element_set_no": 999,
        "meta_rev_at_epoch": 52730,
        "meta_bstar": 0.00027795557,
        "meta_mean_motion_dot": 5.795e-05,
        "meta_mean_motion_ddot": 0,
        "tle_line1": "1 41599U 16040A   25359.24532913  .00005795  00000+0  27796-3 0  9991",
        "tle_line2": "2 41599  97.4743  56.3659 0010619  23.4032 336.7684 15.19228696527302"
      },
      "geometry": {
        "type": "Point",
        "coordinates": [
          58.82035824707907,
          -14.893376193187892
        ]
      }
    },
    {
      "type": "Feature",
      "properties": {
        "norad_id": 41601,
        "name": "SKYSAT-C1",
        "group": "resource",
        "lat": -50.926920217236116,
        "lon": 44.66624741826978,
        "alt_km": 473.7680880749058,
        "timestamp": "2025-12-25T16:53:14.311265+00:00",
        "meta_object_name": "SKYSAT-C1",
        "meta_object_id": "2016-040C",
        "meta_epoch": "2025-12-25T01:26:37.321152",
        "meta_mean_motion": 15.32807797,
        "meta_eccentricity": 9.313e-05,
        "meta_inclination": 96.9806,
        "meta_ra_of_asc_node": 35.379,
        "meta_arg_of_pericenter": 322.4418,
        "meta_mean_anomaly": 37.676,
        "meta_ephemeris_type": 0,
        "meta_classification_type": "U",
        "meta_norad_cat_id": 41601,
        "meta_element_set_no": 999,
        "meta_rev_at_epoch": 53116,
        "meta_bstar": 0.00032372766,
        "meta_mean_motion_dot": 0.00010188,
        "meta_mean_motion_ddot": 0,
        "tle_line1": "1 41601U 16040C   25359.06015418  .00010188  00000+0  32373-3 0  9990",
        "tle_line2": "2 41601  96.9806  35.3790 0000931 322.4418  37.6760 15.32807797531160"
      },
      "geometry": {
        "type": "Point",
        "coordinates": [
          44.66624741826978,
          -50.926920217236116
        ]
      }
    },
    {
      "type": "Feature",
      "properties": {
        "norad_id": 41603,
        "name": "LAPAN-A3",
        "group": "resource",
        "lat": 40.849727953142754,
        "lon": -9.436865925003314,
        "alt_km": 470.7831844536313,
        "timestamp": "2025-12-25T16:53:14.311276+00:00",
        "meta_object_name": "LAPAN-A3",
        "meta_object_id": "2016-040E",
        "meta_epoch": "2025-12-25T07:18:00.369216",
        "meta_mean_motion": 15.31653486,
        "meta_eccentricity": 0.00086628,
        "meta_inclination": 97.1435,
        "meta_ra_of_asc_node": 356.4038,
        "meta_arg_of_pericenter": 281.5741,
        "meta_mean_anomaly": 78.4529,
        "meta_ephemeris_type": 0,
        "meta_classification_type": "U",
        "meta_norad_cat_id": 41603,
        "meta_element_set_no": 999,
        "meta_rev_at_epoch": 52818,
        "meta_bstar": 0.00015581572,
        "meta_mean_motion_dot": 4.692e-05,
        "meta_mean_motion_ddot": 0,
        "tle_line1": "1 41603U 16040E   25359.30417094  .00004692  00000+0  15582-3 0  9991",
        "tle_line2": "2 41603  97.1435 356.4038 0008662 281.5741  78.4529 15.31653486528185"
      },
      "geometry": {
        "type": "Point",
        "coordinates": [
          -9.436865925003314,
          40.849727953142754
        ]
      }
    },
    {
      "type": "Feature",
      "properties": {
        "norad_id": 41604,
        "name": "BIROS",
        "group": "resource",
        "lat": 10.106821687480261,
        "lon": -147.02838386602502,
        "alt_km": 288.3074162219036,
        "timestamp": "2025-12-25T16:53:14.311287+00:00",
        "meta_object_name": "BIROS",
        "meta_object_id": "2016-040F",
        "meta_epoch": "2025-12-25T01:07:09.917184",
        "meta_mean_motion": 15.94683958,
        "meta_eccentricity": 0.00039046,
        "meta_inclination": 97.0657,
        "meta_ra_of_asc_node": 31.0163,
        "meta_arg_of_pericenter": 124.4663,
        "meta_mean_anomaly": 235.6982,
        "meta_ephemeris_type": 0,
        "meta_classification_type": "U",
        "meta_norad_cat_id": 41604,
        "meta_element_set_no": 999,
        "meta_rev_at_epoch": 53068,
        "meta_bstar": 0.0006151692,
        "meta_mean_motion_dot": 0.00232464,
        "meta_mean_motion_ddot": 2.2718232e-05,
        "tle_line1": "1 41604U 16040F   25359.04664256  .00232464  22718-4  61517-3 0  9991",
        "tle_line2": "2 41604  97.0657  31.0163 0003904 124.4663 235.6982 15.94683958530682"
      },
      "geometry": {
        "type": "Point",
        "coordinates": [
          -147.02838386602502,
          10.106821687480261
        ]
      }
    },
    {
      "type": "Feature",
      "properties": {
        "norad_id": 41727,
        "name": "GAOFEN-3",
        "group": "resource",
        "lat": -25.68966535885509,
        "lon": 9.169705921582471,
        "alt_km": 756.6617725891756,
        "timestamp": "2025-12-25T16:53:14.311297+00:00",
        "meta_object_name": "GAOFEN-3",
        "meta_object_id": "2016-049A",
        "meta_epoch": "2025-12-25T07:01:01.613856",
        "meta_mean_motion": 14.42217077,
        "meta_eccentricity": 0.00010994,
        "meta_inclination": 98.4036,
        "meta_ra_of_asc_node": 4.6869,
        "meta_arg_of_pericenter": 55.1491,
        "meta_mean_anomaly": 304.9802,
        "meta_ephemeris_type": 0,
        "meta_classification_type": "U",
        "meta_norad_cat_id": 41727,
        "meta_element_set_no": 999,
        "meta_rev_at_epoch": 49358,
        "meta_bstar": 8.1458993e-05,
        "meta_mean_motion_dot": 2.25e-06,
        "meta_mean_motion_ddot": 0,
        "tle_line1": "1 41727U 16049A   25359.29237979  .00000225  00000+0  81459-4 0  9992",
        "tle_line2": "2 41727  98.4036   4.6869 0001099  55.1491 304.9802 14.42217077493580"
      },
      "geometry": {
        "type": "Point",
        "coordinates": [
          9.169705921582471,
          -25.68966535885509
        ]
      }
    },
    {
      "type": "Feature",
      "properties": {
        "norad_id": 41771,
        "name": "SKYSAT-C4",
        "group": "resource",
        "lat": -22.944858155585912,
        "lon": 27.216335645073805,
        "alt_km": 445.3694772362651,
        "timestamp": "2025-12-25T16:53:14.311308+00:00",
        "meta_object_name": "SKYSAT-C4",
        "meta_object_id": "2016-058B",
        "meta_epoch": "2025-12-25T02:58:33.098880",
        "meta_mean_motion": 15.42597663,
        "meta_eccentricity": 0.00025562,
        "meta_inclination": 96.9362,
        "meta_ra_of_asc_node": 23.7104,
        "meta_arg_of_pericenter": 123.3164,
        "meta_mean_anomaly": 236.833,
        "meta_ephemeris_type": 0,
        "meta_classification_type": "U",
        "meta_norad_cat_id": 41771,
        "meta_element_set_no": 999,
        "meta_rev_at_epoch": 51858,
        "meta_bstar": 0.00036070781,
        "meta_mean_motion_dot": 0.00015617,
        "meta_mean_motion_ddot": 0,
        "tle_line1": "1 41771U 16058B   25359.12399420  .00015617  00000+0  36071-3 0  9993",
        "tle_line2": "2 41771  96.9362  23.7104 0002556 123.3164 236.8330 15.42597663518582"
      },
      "geometry": {
        "type": "Point",
        "coordinates": [
          27.216335645073805,
          -22.944858155585912
        ]
      }
    },
    {
      "type": "Feature",
      "properties": {
        "norad_id": 41772,
        "name": "SKYSAT-C5",
        "group": "resource",
        "lat": -42.525735142865635,
        "lon": -143.62708293859797,
        "alt_km": 467.58199297990905,
        "timestamp": "2025-12-25T16:53:14.311318+00:00",
        "meta_object_name": "SKYSAT-C5",
        "meta_object_id": "2016-058C",
        "meta_epoch": "2025-12-25T01:49:46.552800",
        "meta_mean_motion": 15.3409486,
        "meta_eccentricity": 0.0003967,
        "meta_inclination": 97.0737,
        "meta_ra_of_asc_node": 42.3114,
        "meta_arg_of_pericenter": 231.5105,
        "meta_mean_anomaly": 128.5783,
        "meta_ephemeris_type": 0,
        "meta_classification_type": "U",
        "meta_norad_cat_id": 41772,
        "meta_element_set_no": 999,
        "meta_rev_at_epoch": 51705,
        "meta_bstar": 0.00031270755,
        "meta_mean_motion_dot": 0.00010248,
        "meta_mean_motion_ddot": 0,
        "tle_line1": "1 41772U 16058C   25359.07623325  .00010248  00000+0  31271-3 0  9994",
        "tle_line2": "2 41772  97.0737  42.3114 0003967 231.5105 128.5783 15.34094860517055"
      },
      "geometry": {
        "type": "Point",
        "coordinates": [
          -143.62708293859797,
          -42.525735142865635
        ]
      }
    }
  ]
}